start=new Date('2022-04-15T00:00:00.000Z').valueOf();
sats=[{"CLASSIFICATION_TYPE":"U","SEMIMAJOR_AXIS":"6917.924","APOAPSIS":"541.228","MEAN_ELEMENT_THEORY":"SGP4","OBJECT_TYPE":"PAYLOAD","EPOCH":"2022-04-14T22:00:00.999936","DECAY_DATE":null,"PERIAPSIS":"538.350","TLE_LINE1":"1 50197U 21125AT  22104.91667824  .00020296  00000-0  12901-2 0  9999","COUNTRY_CODE":"US","BSTAR":"0.00129010000000","REV_AT_EPOCH":"363","ECCENTRICITY":"0.00020800","ELEMENT_SET_NO":"999","PERIOD":"95.438","TIME_SYSTEM":"UTC","EPHEMERIS_TYPE":"0","LAUNCH_DATE":"2021-12-18","FILE":"3401977","SITE":"AFWTR","TLE_LINE2":"2 50197  53.2160 155.1612 0002080  52.1123 208.9432 15.08825627  3630","ARG_OF_PERICENTER":"52.1123","MEAN_MOTION_DOT":"0.00020296","REF_FRAME":"TEME","CENTER_NAME":"EARTH","GP_ID":"201257624","RCS_SIZE":"LARGE","MEAN_ANOMALY":"208.9432","NORAD_CAT_ID":"50197","INCLINATION":"53.2160","MEAN_MOTION_DDOT":"0.0000000000000","RA_OF_ASC_NODE":"155.1612","OBJECT_NAME":"STARLINK-3267","MEAN_MOTION":"15.08825627","OBJECT_ID":"2021-125AT"},{"OBJECT_ID":"2021-125AU","RA_OF_ASC_NODE":"155.1596","OBJECT_NAME":"STARLINK-3264","MEAN_MOTION":"15.08801004","NORAD_CAT_ID":"50198","INCLINATION":"53.2177","MEAN_MOTION_DDOT":"0.0000000000000","MEAN_ANOMALY":"296.4774","GP_ID":"201233889","CENTER_NAME":"EARTH","RCS_SIZE":"LARGE","MEAN_MOTION_DOT":"0.00020215","REF_FRAME":"TEME","FILE":"3401859","SITE":"AFWTR","ARG_OF_PERICENTER":"44.6623","TLE_LINE2":"2 50198  53.2177 155.1596 0001762  44.6623 296.4774 15.08801004 21169","LAUNCH_DATE":"2021-12-18","PERIOD":"95.440","TIME_SYSTEM":"UTC","EPHEMERIS_TYPE":"0","ECCENTRICITY":"0.00017620","ELEMENT_SET_NO":"999","TLE_LINE1":"1 50198U 21125AU  22104.91667824  .00020215  00000-0  12859-2 0  9993","COUNTRY_CODE":"US","REV_AT_EPOCH":"2116","BSTAR":"0.00128590000000","DECAY_DATE":null,"PERIAPSIS":"538.646","OBJECT_TYPE":"PAYLOAD","EPOCH":"2022-04-14T22:00:00.999936","SEMIMAJOR_AXIS":"6918.000","MEAN_ELEMENT_THEORY":"SGP4","APOAPSIS":"541.084","CLASSIFICATION_TYPE":"U"},{"CENTER_NAME":"EARTH","GP_ID":"201259120","RCS_SIZE":"LARGE","MEAN_MOTION_DOT":"0.00019943","REF_FRAME":"TEME","FILE":"3401977","ARG_OF_PERICENTER":"39.5755","TLE_LINE2":"2 50199  53.2115 155.1787 0001762  39.5755  41.5325 15.08833490  3641","SITE":"AFWTR","LAUNCH_DATE":"2021-12-18","OBJECT_ID":"2021-125AV","OBJECT_NAME":"STARLINK-3270","RA_OF_ASC_NODE":"155.1787","MEAN_MOTION":"15.08833490","INCLINATION":"53.2115","NORAD_CAT_ID":"50199","MEAN_MOTION_DDOT":"0.0000000000000","MEAN_ANOMALY":"41.5325","EPOCH":"2022-04-14T22:00:00.999936","OBJECT_TYPE":"PAYLOAD","SEMIMAJOR_AXIS":"6917.900","MEAN_ELEMENT_THEORY":"SGP4","APOAPSIS":"540.984","CLASSIFICATION_TYPE":"U","TIME_SYSTEM":"UTC","PERIOD":"95.438","EPHEMERIS_TYPE":"0","ECCENTRICITY":"0.00017620","ELEMENT_SET_NO":"999","REV_AT_EPOCH":"364","COUNTRY_CODE":"US","BSTAR":"0.00126780000000","TLE_LINE1":"1 50199U 21125AV  22104.91667824  .00019943  00000-0  12678-2 0  9999","DECAY_DATE":null,"PERIAPSIS":"538.546"},{"INCLINATION":"53.2156","NORAD_CAT_ID":"50200","MEAN_MOTION_DDOT":"0.0000000000000","MEAN_ANOMALY":"259.0733","OBJECT_ID":"2021-125AW","OBJECT_NAME":"STARLINK-3235","MEAN_MOTION":"15.08786167","RA_OF_ASC_NODE":"155.1614","FILE":"3401977","TLE_LINE2":"2 50200  53.2156 155.1614 0001865  42.0902 259.0733 15.08786167  3631","ARG_OF_PERICENTER":"42.0902","SITE":"AFWTR","LAUNCH_DATE":"2021-12-18","GP_ID":"201258876","CENTER_NAME":"EARTH","RCS_SIZE":"LARGE","MEAN_MOTION_DOT":"0.00020176","REF_FRAME":"TEME","BSTAR":"0.00128400000000","COUNTRY_CODE":"US","REV_AT_EPOCH":"363","TLE_LINE1":"1 50200U 21125AW  22104.91667824  .00020176  00000-0  12840-2 0  9993","DECAY_DATE":null,"PERIAPSIS":"538.620","TIME_SYSTEM":"UTC","PERIOD":"95.441","EPHEMERIS_TYPE":"0","ECCENTRICITY":"0.00018650","ELEMENT_SET_NO":"999","SEMIMAJOR_AXIS":"6918.045","APOAPSIS":"541.200","MEAN_ELEMENT_THEORY":"SGP4","CLASSIFICATION_TYPE":"U","EPOCH":"2022-04-14T22:00:00.999936","OBJECT_TYPE":"PAYLOAD"},{"FILE":"3401977","ARG_OF_PERICENTER":"48.6725","TLE_LINE2":"2 50201  53.2180 155.1589 0001821  48.6725 312.4735 15.08769813  3632","SITE":"AFWTR","LAUNCH_DATE":"2021-12-18","CENTER_NAME":"EARTH","GP_ID":"201258119","RCS_SIZE":"LARGE","MEAN_MOTION_DOT":"0.00019592","REF_FRAME":"TEME","INCLINATION":"53.2180","NORAD_CAT_ID":"50201","MEAN_MOTION_DDOT":"0.0000000000000","MEAN_ANOMALY":"312.4735","OBJECT_ID":"2021-125AX","OBJECT_NAME":"STARLINK-3255","MEAN_MOTION":"15.08769813","RA_OF_ASC_NODE":"155.1589","SEMIMAJOR_AXIS":"6918.095","MEAN_ELEMENT_THEORY":"SGP4","APOAPSIS":"541.220","CLASSIFICATION_TYPE":"U","EPOCH":"2022-04-14T22:00:00.999936","OBJECT_TYPE":"PAYLOAD","COUNTRY_CODE":"US","REV_AT_EPOCH":"363","BSTAR":"0.00124800000000","TLE_LINE1":"1 50201U 21125AX  22104.91667824  .00019592  00000-0  12480-2 0  9994","DECAY_DATE":null,"PERIAPSIS":"538.700","TIME_SYSTEM":"UTC","PERIOD":"95.442","EPHEMERIS_TYPE":"0","ECCENTRICITY":"0.00018210","ELEMENT_SET_NO":"999"},{"DECAY_DATE":null,"PERIAPSIS":"538.574","TLE_LINE1":"1 50202U 21125AY  22104.91667824  .00020245  00000-0  12870-2 0  9995","COUNTRY_CODE":"US","REV_AT_EPOCH":"362","BSTAR":"0.00128700000000","ECCENTRICITY":"0.00017670","ELEMENT_SET_NO":"999","PERIOD":"95.439","TIME_SYSTEM":"UTC","EPHEMERIS_TYPE":"0","CLASSIFICATION_TYPE":"U","SEMIMAJOR_AXIS":"6917.932","MEAN_ELEMENT_THEORY":"SGP4","APOAPSIS":"541.019","OBJECT_TYPE":"PAYLOAD","EPOCH":"2022-04-14T22:00:00.999936","MEAN_ANOMALY":"62.4187","NORAD_CAT_ID":"50202","INCLINATION":"53.2149","MEAN_MOTION_DDOT":"0.0000000000000","MEAN_MOTION":"15.08823231","OBJECT_NAME":"STARLINK-3256","RA_OF_ASC_NODE":"155.1768","OBJECT_ID":"2021-125AY","LAUNCH_DATE":"2021-12-18","FILE":"3401977","SITE":"AFWTR","ARG_OF_PERICENTER":"38.7006","TLE_LINE2":"2 50202  53.2149 155.1768 0001767  38.7006  62.4187 15.08823231  3625","MEAN_MOTION_DOT":"0.00020245","REF_FRAME":"TEME","CENTER_NAME":"EARTH","GP_ID":"201258369","RCS_SIZE":"LARGE"},{"MEAN_MOTION_DOT":"-0.00013255","REF_FRAME":"TEME","CENTER_NAME":"EARTH","GP_ID":"201258626","RCS_SIZE":"LARGE","LAUNCH_DATE":"2021-12-18","FILE":"3401977","SITE":"AFWTR","ARG_OF_PERICENTER":"51.7833","TLE_LINE2":"2 50203  53.2178 155.1603 0001936  51.7833 269.2761 15.08844039  3632","RA_OF_ASC_NODE":"155.1603","OBJECT_NAME":"STARLINK-3257","MEAN_MOTION":"15.08844039","OBJECT_ID":"2021-125AZ","MEAN_ANOMALY":"269.2761","NORAD_CAT_ID":"50203","INCLINATION":"53.2178","MEAN_MOTION_DDOT":"0.0000000000000","OBJECT_TYPE":"PAYLOAD","EPOCH":"2022-04-14T22:00:00.999936","CLASSIFICATION_TYPE":"U","SEMIMAJOR_AXIS":"6917.868","MEAN_ELEMENT_THEORY":"SGP4","APOAPSIS":"541.072","ECCENTRICITY":"0.00019360","ELEMENT_SET_NO":"999","PERIOD":"95.437","TIME_SYSTEM":"UTC","EPHEMERIS_TYPE":"0","DECAY_DATE":null,"PERIAPSIS":"538.394","TLE_LINE1":"1 50203U 21125AZ  22104.91667824 -.00013255  00000-0 -81610-3 0  9990","REV_AT_EPOCH":"363","COUNTRY_CODE":"US","BSTAR":"-0.00081610000000"},{"CLASSIFICATION_TYPE":"U","APOAPSIS":"540.823","MEAN_ELEMENT_THEORY":"SGP4","SEMIMAJOR_AXIS":"6917.823","OBJECT_TYPE":"PAYLOAD","EPOCH":"2022-04-14T22:00:00.999936","PERIAPSIS":"538.553","DECAY_DATE":null,"TLE_LINE1":"1 50204U 21125BA  22104.91667824 -.00062183  00000-0 -39209-2 0  9991","COUNTRY_CODE":"US","REV_AT_EPOCH":"363","BSTAR":"-0.00392090000000","ELEMENT_SET_NO":"999","ECCENTRICITY":"0.00016410","EPHEMERIS_TYPE":"0","PERIOD":"95.436","TIME_SYSTEM":"UTC","LAUNCH_DATE":"2021-12-18","SITE":"AFWTR","ARG_OF_PERICENTER":"46.7282","TLE_LINE2":"2 50204  53.2154 155.1579 0001641  46.7282  14.4197 15.08858710  3638","FILE":"3401977","REF_FRAME":"TEME","MEAN_MOTION_DOT":"-0.00062183","RCS_SIZE":"LARGE","CENTER_NAME":"EARTH","GP_ID":"201259371","MEAN_ANOMALY":"14.4197","MEAN_MOTION_DDOT":"0.0000000000000","NORAD_CAT_ID":"50204","INCLINATION":"53.2154","OBJECT_NAME":"STARLINK-3254","MEAN_MOTION":"15.08858710","RA_OF_ASC_NODE":"155.1579","OBJECT_ID":"2021-125BA"},{"PERIOD":"91.537","TIME_SYSTEM":"UTC","EPHEMERIS_TYPE":"0","ECCENTRICITY":"0.00065820","ELEMENT_SET_NO":"999","TLE_LINE1":"1 50205U 21125BB  22104.91667824  .00093314  00000-0  66309-3 0  9992","COUNTRY_CODE":"US","REV_AT_EPOCH":"2136","BSTAR":"0.00066309000000","DECAY_DATE":null,"PERIAPSIS":"345.519","OBJECT_TYPE":"PAYLOAD","EPOCH":"2022-04-14T22:00:00.999936","SEMIMAJOR_AXIS":"6728.083","MEAN_ELEMENT_THEORY":"SGP4","APOAPSIS":"354.376","CLASSIFICATION_TYPE":"U","OBJECT_ID":"2021-125BB","OBJECT_NAME":"STARLINK-3260","MEAN_MOTION":"15.73134211","RA_OF_ASC_NODE":"140.9453","NORAD_CAT_ID":"50205","INCLINATION":"53.2128","MEAN_MOTION_DDOT":"0.0000000000000","MEAN_ANOMALY":"170.6826","GP_ID":"201234386","CENTER_NAME":"EARTH","RCS_SIZE":"LARGE","MEAN_MOTION_DOT":"0.00093314","REF_FRAME":"TEME","FILE":"3401859","SITE":"AFWTR","ARG_OF_PERICENTER":"306.6095","TLE_LINE2":"2 50205  53.2128 140.9453 0006582 306.6095 170.6826 15.73134211 21361","LAUNCH_DATE":"2021-12-18"},{"MEAN_MOTION_DDOT":"0.0000000000000","NORAD_CAT_ID":"50206","INCLINATION":"53.2172","MEAN_ANOMALY":"349.2644","OBJECT_ID":"2021-125BC","OBJECT_NAME":"STARLINK-3258","RA_OF_ASC_NODE":"155.1575","MEAN_MOTION":"15.08812364","SITE":"AFWTR","TLE_LINE2":"2 50206  53.2172 155.1575 0001794  51.9140 349.2644 15.08812364  3637","ARG_OF_PERICENTER":"51.9140","FILE":"3401977","LAUNCH_DATE":"2021-12-18","RCS_SIZE":"LARGE","CENTER_NAME":"EARTH","GP_ID":"201257875","REF_FRAME":"TEME","MEAN_MOTION_DOT":"0.00001654","TLE_LINE1":"1 50206U 21125BC  22104.91667824  .00001654  00000-0  12211-3 0  9992","REV_AT_EPOCH":"363","COUNTRY_CODE":"US","BSTAR":"0.00012211000000","PERIAPSIS":"538.589","DECAY_DATE":null,"EPHEMERIS_TYPE":"0","PERIOD":"95.439","TIME_SYSTEM":"UTC","ELEMENT_SET_NO":"999","ECCENTRICITY":"0.00017940","APOAPSIS":"541.071","MEAN_ELEMENT_THEORY":"SGP4","SEMIMAJOR_AXIS":"6917.965","CLASSIFICATION_TYPE":"U","OBJECT_TYPE":"PAYLOAD","EPOCH":"2022-04-14T22:00:00.999936"}];
